{"type": "FeatureCollection", "features": [ {"type": "Feature", "properties": {"norad_id": 30703, "name": "FENGYUN 1C DEB", "group": "fengyun-1c-debris", "lat": 13.659604944035179, "lon": 159.1745884119248, "alt_km": 859.0721856029304, "timestamp": "2025-12-17T17:50:19.529095+00:00", "meta": {"OBJECT_NAME": "FENGYUN 1C DEB", "OBJECT_ID": "1999-025ARM", "EPOCH": "2025-12-16T22:42:14.693760", "MEAN_MOTION": 14.1934713, "ECCENTRICITY": 0.01173954, "INCLINATION": 99.1422, "RA_OF_ASC_NODE": 336.1092, "ARG_OF_PERICENTER": 280.1124, "MEAN_ANOMALY": 135.6387, "EPHEMERIS_TYPE": 0, "CLASSIFICATION_TYPE": "U", "NORAD_CAT_ID": 30703, "ELEMENT_SET_NO": 999, "REV_AT_EPOCH": 96600, "BSTAR": 0.00086552503, "MEAN_MOTION_DOT": 1.9e-05, "MEAN_MOTION_DDOT": 0}, "tle": {"line1": "1 30703U 99025ARM 25350.94600340  .00001900  00000+0  86553-3 0  9998", "line2": "2 30703  99.1422 336.1092 0117395 280.1124 135.6387 14.19347130966007"}}, "geometry": {"type": "Point", "coordinates": [159.1745884119248, 13.659604944035179]}}, {"type": "Feature", "properties": {"norad_id": 30704, "name": "FENGYUN 1C DEB", "group": "fengyun-1c-debris", "lat": 19.86252942213877, "lon": 173.58433594337745, "alt_km": 869.6226300287472, "timestamp": "2025-12-17T17:50:19.529124+00:00", "meta": {"OBJECT_NAME": "FENGYUN 1C DEB", "OBJECT_ID": "1999-025ARN", "EPOCH": "2025-12-16T22:34:24.898944", "MEAN_MOTION": 14.02054402, "ECCENTRICITY": 0.0081775, "INCLINATION": 98.8728, "RA_OF_ASC_NODE": 349.5682, "ARG_OF_PERICENTER": 88.246, "MEAN_ANOMALY": 341.2451, "EPHEMERIS_TYPE": 0, "CLASSIFICATION_TYPE": "U", "NORAD_CAT_ID": 30704, "ELEMENT_SET_NO": 999, "REV_AT_EPOCH": 96170, "BSTAR": 0.000458481, "MEAN_MOTION_DOT": 6.78e-06, "MEAN_MOTION_DDOT": 0}, "tle": {"line1": "1 30704U 99025ARN 25350.94056596  .00000678  00000+0  45848-3 0  9990", "line2": "2 30704  98.8728 349.5682 0081775  88.2460 341.2451 14.02054402961706"}}, "geometry": {"type": "Point", "coordinates": [173.58433594337745, 19.86252942213877]}}, {"type": "Feature", "properties": {"norad_id": 30705, "name": "FENGYUN 1C DEB", "group": "fengyun-1c-debris", "lat": -20.63062012922079, "lon": -87.30811107793615, "alt_km": 909.558745612484, "timestamp": "2025-12-17T17:50:19.529136+00:00", "meta": {"OBJECT_NAME": "FENGYUN 1C DEB", "OBJECT_ID": "1999-025ARP", "EPOCH": "2025-12-17T06:32:47.098176", "MEAN_MOTION": 13.81345968, "ECCENTRICITY": 0.02004539, "INCLINATION": 102.1806, "RA_OF_ASC_NODE": 96.7506, "ARG_OF_PERICENTER": 271.4393, "MEAN_ANOMALY": 113.0366, "EPHEMERIS_TYPE": 0, "CLASSIFICATION_TYPE": "U", "NORAD_CAT_ID": 30705, "ELEMENT_SET_NO": 999, "REV_AT_EPOCH": 94072, "BSTAR": 0.0019960773, "MEAN_MOTION_DOT": 2.402e-05, "MEAN_MOTION_DDOT": 0}, "tle": {"line1": "1 30705U 99025ARP 25351.27276734  .00002402  00000+0  19961-2 0  9999", "line2": "2 30705 102.1806  96.7506 0200453 271.4393 113.0366 13.81345968940721"}}, "geometry": {"type": "Point", "coordinates": [-87.30811107793615, -20.63062012922079]}}, {"type": "Feature", "properties": {"norad_id": 30706, "name": "FENGYUN 1C DEB", "group": "fengyun-1c-debris", "lat": -50.71684620085853, "lon": 55.2706832260986, "alt_km": 819.3909394884759, "timestamp": "2025-12-17T17:50:19.529146+00:00", "meta": {"OBJECT_NAME": "FENGYUN 1C DEB", "OBJECT_ID": "1999-025ARQ", "EPOCH": "2025-12-17T03:17:29.626080", "MEAN_MOTION": 14.26442157, "ECCENTRICITY": 0.00267882, "INCLINATION": 99.0659, "RA_OF_ASC_NODE": 245.8993, "ARG_OF_PERICENTER": 115.6622, "MEAN_ANOMALY": 244.7328, "EPHEMERIS_TYPE": 0, "CLASSIFICATION_TYPE": "U", "NORAD_CAT_ID": 30706, "ELEMENT_SET_NO": 999, "REV_AT_EPOCH": 97690, "BSTAR": 0.00066071144, "MEAN_MOTION_DOT": 1.549e-05, "MEAN_MOTION_DDOT": 0}, "tle": {"line1": "1 30706U 99025ARQ 25351.13714845  .00001549  00000+0  66071-3 0  9991", "line2": "2 30706  99.0659 245.8993 0026788 115.6622 244.7328 14.26442157976907"}}, "geometry": {"type": "Point", "coordinates": [55.2706832260986, -50.71684620085853]}}, {"type": "Feature", "properties": {"norad_id": 30707, "name": "FENGYUN 1C DEB", "group": "fengyun-1c-debris", "lat": 70.06084693265325, "lon": -106.29575295825057, "alt_km": 783.7128179927586, "timestamp": "2025-12-17T17:50:19.529156+00:00", "meta": {"OBJECT_NAME": "FENGYUN 1C DEB", "OBJECT_ID": "1999-025ARR", "EPOCH": "2025-12-17T02:19:51.801312", "MEAN_MOTION": 14.26716401, "ECCENTRICITY": 0.00274747, "INCLINATION": 99.4128, "RA_OF_ASC_NODE": 45.7985, "ARG_OF_PERICENTER": 57.3981, "MEAN_ANOMALY": 333.0495, "EPHEMERIS_TYPE": 0, "CLASSIFICATION_TYPE": "U", "NORAD_CAT_ID": 30707, "ELEMENT_SET_NO": 999, "REV_AT_EPOCH": 96865, "BSTAR": 0.0011718914, "MEAN_MOTION_DOT": 2.798e-05, "MEAN_MOTION_DDOT": 0}, "tle": {"line1": "1 30707U 99025ARR 25351.09712733  .00002798  00000+0  11719-2 0  9996", "line2": "2 30707  99.4128  45.7985 0027474  57.3981 333.0495 14.26716401968650"}}, "geometry": {"type": "Point", "coordinates": [-106.29575295825057, 70.06084693265325]}}, {"type": "Feature", "properties": {"norad_id": 30708, "name": "FENGYUN 1C DEB", "group": "fengyun-1c-debris", "lat": -81.26113360480105, "lon": 100.9739227368278, "alt_km": 859.1464178877959, "timestamp": "2025-12-17T17:50:19.529166+00:00", "meta": {"OBJECT_NAME": "FENGYUN 1C DEB", "OBJECT_ID": "1999-025ARS", "EPOCH": "2025-12-16T23:51:23.749632", "MEAN_MOTION": 14.12181617, "ECCENTRICITY": 0.0008264, "INCLINATION": 98.6902, "RA_OF_ASC_NODE": 4.5004, "ARG_OF_PERICENTER": 182.1622, "MEAN_ANOMALY": 239.889, "EPHEMERIS_TYPE": 0, "CLASSIFICATION_TYPE": "U", "NORAD_CAT_ID": 30708, "ELEMENT_SET_NO": 999, "REV_AT_EPOCH": 96896, "BSTAR": 0.00016137612, "MEAN_MOTION_DOT": 2.54e-06, "MEAN_MOTION_DDOT": 0}, "tle": {"line1": "1 30708U 99025ARS 25350.99402488  .00000254  00000+0  16138-3 0  9994", "line2": "2 30708  98.6902   4.5004 0008264 182.1622 239.8890 14.12181617968968"}}, "geometry": {"type": "Point", "coordinates": [100.9739227368278, -81.26113360480105]}}, {"type": "Feature", "properties": {"norad_id": 30709, "name": "FENGYUN 1C DEB", "group": "fengyun-1c-debris", "lat": 32.94289916620764, "lon": -36.14663614474422, "alt_km": 875.1847386006493, "timestamp": "2025-12-17T17:50:19.529176+00:00", "meta": {"OBJECT_NAME": "FENGYUN 1C DEB", "OBJECT_ID": "1999-025ART", "EPOCH": "2025-12-16T09:29:36.914496", "MEAN_MOTION": 14.17517759, "ECCENTRICITY": 0.0082173, "INCLINATION": 99.1438, "RA_OF_ASC_NODE": 328.4577, "ARG_OF_PERICENTER": 259.7458, "MEAN_ANOMALY": 99.4442, "EPHEMERIS_TYPE": 0, "CLASSIFICATION_TYPE": "U", "NORAD_CAT_ID": 30709, "ELEMENT_SET_NO": 999, "REV_AT_EPOCH": 96048, "BSTAR": 0.0018171915, "MEAN_MOTION_DOT": 3.766e-05, "MEAN_MOTION_DDOT": 0}, "tle": {"line1": "1 30709U 99025ART 25350.39556614  .00003766  00000+0  18172-2 0  9990", "line2": "2 30709  99.1438 328.4577 0082173 259.7458  99.4442 14.17517759960488"}}, "geometry": {"type": "Point", "coordinates": [-36.14663614474422, 32.94289916620764]}}, {"type": "Feature", "properties": {"norad_id": 30710, "name": "FENGYUN 1C DEB", "group": "fengyun-1c-debris", "lat": -30.459238254475554, "lon": 55.17889757996704, "alt_km": 1043.1544798575242, "timestamp": "2025-12-17T17:50:19.529187+00:00", "meta": {"OBJECT_NAME": "FENGYUN 1C DEB", "OBJECT_ID": "1999-025ARU", "EPOCH": "2025-12-16T23:42:12.187584", "MEAN_MOTION": 13.94180122, "ECCENTRICITY": 0.02241974, "INCLINATION": 102.7468, "RA_OF_ASC_NODE": 241.7895, "ARG_OF_PERICENTER": 73.1572, "MEAN_ANOMALY": 305.5585, "EPHEMERIS_TYPE": 0, "CLASSIFICATION_TYPE": "U", "NORAD_CAT_ID": 30710, "ELEMENT_SET_NO": 999, "REV_AT_EPOCH": 94848, "BSTAR": 0.0022799931, "MEAN_MOTION_DOT": 3.656e-05, "MEAN_MOTION_DDOT": 0}, "tle": {"line1": "1 30710U 99025ARU 25350.98764106  .00003656  00000+0  22800-2 0  9995", "line2": "2 30710 102.7468 241.7895 0224197  73.1572 305.5585 13.94180122948482"}}, "geometry": {"type": "Point", "coordinates": [55.17889757996704, -30.459238254475554]}}, {"type": "Feature", "properties": {"norad_id": 30714, "name": "FENGYUN 1C DEB", "group": "fengyun-1c-debris", "lat": -1.4437396695743594, "lon": 40.348461669698, "alt_km": 885.2877988544033, "timestamp": "2025-12-17T17:50:19.529197+00:00", "meta": {"OBJECT_NAME": "FENGYUN 1C DEB", "OBJECT_ID": "1999-025ARY", "EPOCH": "2025-12-17T02:35:34.154880", "MEAN_MOTION": 14.03298204, "ECCENTRICITY": 0.00666391, "INCLINATION": 98.8364, "RA_OF_ASC_NODE": 39.5069, "ARG_OF_PERICENTER": 270.2596, "MEAN_ANOMALY": 120.2157, "EPHEMERIS_TYPE": 0, "CLASSIFICATION_TYPE": "U", "NORAD_CAT_ID": 30714, "ELEMENT_SET_NO": 999, "REV_AT_EPOCH": 96054, "BSTAR": 0.0003898538, "MEAN_MOTION_DOT": 5.77e-06, "MEAN_MOTION_DDOT": 0}, "tle": {"line1": "1 30714U 99025ARY 25351.10803420  .00000577  00000+0  38985-3 0  9998", "line2": "2 30714  98.8364  39.5069 0066639 270.2596 120.2157 14.03298204960543"}}, "geometry": {"type": "Point", "coordinates": [40.348461669698, -1.4437396695743594]}}, {"type": "Feature", "properties": {"norad_id": 30715, "name": "FENGYUN 1C DEB", "group": "fengyun-1c-debris", "lat": 64.45332045638904, "lon": 41.620988798843605, "alt_km": 835.1228080815272, "timestamp": "2025-12-17T17:50:19.529207+00:00", "meta": {"OBJECT_NAME": "FENGYUN 1C DEB", "OBJECT_ID": "1999-025ARZ", "EPOCH": "2025-12-17T03:56:48.334848", "MEAN_MOTION": 14.14725268, "ECCENTRICITY": 0.00676938, "INCLINATION": 98.9772, "RA_OF_ASC_NODE": 60.3516, "ARG_OF_PERICENTER": 155.9629, "MEAN_ANOMALY": 204.4728, "EPHEMERIS_TYPE": 0, "CLASSIFICATION_TYPE": "U", "NORAD_CAT_ID": 30715, "ELEMENT_SET_NO": 999, "REV_AT_EPOCH": 96244, "BSTAR": 0.0013464674, "MEAN_MOTION_DOT": 2.606e-05, "MEAN_MOTION_DDOT": 0}, "tle": {"line1": "1 30715U 99025ARZ 25351.16444832  .00002606  00000+0  13465-2 0  9993", "line2": "2 30715  98.9772  60.3516 0067693 155.9629 204.4728 14.14725268962441"}}, "geometry": {"type": "Point", "coordinates": [41.620988798843605, 64.45332045638904]}}]}